{
  "source": {
    "name": "Airframes Project",
    "url": "https://github.com/airframesio",
    "email": "kevin@airframes.io"
  },
  "attribution": {
    "name": "NOAA NWS Aviation Weather Center",
    "url": "https://aviationweather.gov/data/cache/metars.cache.xml.gz"
  },
  "resource_type": "metars",
  "count": 13,
  "metars": [
    {
      "raw_text": "METAR KC62 140455Z AUTO 23005KT 10SM SCT027 SCT034 20/17 A2988 RMK AO2 T02070170",
      "station_id": "KC62",
      "observation_time": "2026-06-14T04:55:00.000Z",
      "latitude": "41.4739",
      "longitude": "-85.2541",
      "temp_c": "20.7",
      "dewpoint_c": "17",
      "wind_dir_degrees": "230",
      "wind_speed_kt": "5",
      "visibility_statute_mi": "10+",
      "altim_in_hg": "29.88",
      "quality_control_flags": {
        "auto": "TRUE",
        "auto_station": "TRUE"
      },
      "sky_condition": [
        {
          "sky_cover": "SCT",
          "cloud_base_ft_agl": "2700"
        },
        {
          "sky_cover": "SCT",
          "cloud_base_ft_agl": "3400"
        }
      ],
      "flight_category": "VFR",
      "metar_type": "METAR",
      "elevation_m": "304"
    },
    {
      "raw_text": "METAR KTFP 140455Z AUTO 14009KT 10SM SCT018 SCT024 29/25 A2991 RMK AO1 T02860253",
      "station_id": "KTFP",
      "observation_time": "2026-06-14T04:55:00.000Z",
      "latitude": "27.9132",
      "longitude": "-97.2132",
      "temp_c": "28.6",
      "dewpoint_c": "25.3",
      "wind_dir_degrees": "140",
      "wind_speed_kt": "9",
      "visibility_statute_mi": "10+",
      "altim_in_hg": "29.91",
      "quality_control_flags": {
        "auto": "TRUE",
        "auto_station": "TRUE"
      },
      "sky_condition": [
        {
          "sky_cover": "SCT",
          "cloud_base_ft_agl": "1800"
        },
        {
          "sky_cover": "SCT",
          "cloud_base_ft_agl": "2400"
        }
      ],
      "flight_category": "VFR",
      "metar_type": "METAR",
      "elevation_m": "5"
    },
    {
      "raw_text": "METAR KLDJ 140435Z AUTO 28003KT 10SM CLR 25/13 A2989 RMK AO2 T02540125",
      "station_id": "KLDJ",
      "observation_time": "2026-06-14T04:35:00.000Z",
      "latitude": "40.6162",
      "longitude": "-74.2451",
      "temp_c": "25.4",
      "dewpoint_c": "12.5",
      "wind_dir_degrees": "280",
      "wind_speed_kt": "3",
      "visibility_statute_mi": "10+",
      "altim_in_hg": "29.89",
      "quality_control_flags": {
        "auto": "TRUE",
        "auto_station": "TRUE"
      },
      "sky_condition": [
        {
          "sky_cover": "CLR"
        }
      ],
      "flight_category": "VFR",
      "metar_type": "METAR",
      "elevation_m": "6"
    },
    {
      "raw_text": "METAR KD50 140435Z AUTO 32007KT 10SM CLR 09/05 A3018 RMK AO2",
      "station_id": "KD50",
      "observation_time": "2026-06-14T04:35:00.000Z",
      "latitude": "48.9248",
      "longitude": "-103.2958",
      "temp_c": "9",
      "dewpoint_c": "5",
      "wind_dir_degrees": "320",
      "wind_speed_kt": "7",
      "visibility_statute_mi": "10+",
      "altim_in_hg": "30.18",
      "quality_control_flags": {
        "auto": "TRUE",
        "auto_station": "TRUE"
      },
      "sky_condition": [
        {
          "sky_cover": "CLR"
        }
      ],
      "flight_category": "VFR",
      "metar_type": "METAR",
      "elevation_m": "591"
    },
    {
      "raw_text": "METAR KSDC 140435Z AUTO 00000KT 10SM SCT120 17/13 A2983 RMK AO2",
      "station_id": "KSDC",
      "observation_time": "2026-06-14T04:35:00.000Z",
      "latitude": "43.2355",
      "longitude": "-77.1201",
      "temp_c": "17",
      "dewpoint_c": "13",
      "wind_dir_degrees": "0",
      "wind_speed_kt": "0",
      "visibility_statute_mi": "10+",
      "altim_in_hg": "29.83",
      "quality_control_flags": {
        "auto": "TRUE",
        "auto_station": "TRUE"
      },
      "sky_condition": [
        {
          "sky_cover": "SCT",
          "cloud_base_ft_agl": "12000"
        }
      ],
      "flight_category": "VFR",
      "metar_type": "METAR",
      "elevation_m": "127"
    },
    {
      "raw_text": "METAR KEZM 140435Z AUTO 00000KT 10SM CLR 24/21 A3001 RMK AO2",
      "station_id": "KEZM",
      "observation_time": "2026-06-14T04:35:00.000Z",
      "latitude": "32.2136",
      "longitude": "-83.1321",
      "temp_c": "24",
      "dewpoint_c": "21",
      "wind_dir_degrees": "0",
      "wind_speed_kt": "0",
      "visibility_statute_mi": "10+",
      "altim_in_hg": "30.01",
      "quality_control_flags": {
        "auto": "TRUE",
        "auto_station": "TRUE"
      },
      "sky_condition": [
        {
          "sky_cover": "CLR"
        }
      ],
      "flight_category": "VFR",
      "metar_type": "METAR",
      "elevation_m": "86"
    },
    {
      "raw_text": "METAR SPZO 140430Z VRB01KT 9999 NSC 05/01 Q1034 NOSIG RMK BIRD HAZARD RWY 10/28",
      "station_id": "SPZO",
      "observation_time": "2026-06-14T04:30:00.000Z",
      "latitude": "-13.5360",
      "longitude": "-71.9390",
      "temp_c": "5",
      "dewpoint_c": "1",
      "wind_dir_degrees": "VRB",
      "wind_speed_kt": "1",
      "visibility_statute_mi": "6+",
      "altim_in_hg": "30.53",
      "quality_control_flags": {
        "no_signal": "TRUE"
      },
      "sky_condition": [
        {
          "sky_cover": "CLR"
        }
      ],
      "flight_category": "VFR",
      "metar_type": "METAR",
      "elevation_m": "3249"
    },
    {
      "raw_text": "METAR OMSJ 140430Z VRB01KT CAVOK 34/24 Q1002 NOSIG",
      "station_id": "OMSJ",
      "observation_time": "2026-06-14T04:30:00.000Z",
      "latitude": "25.3290",
      "longitude": "55.5170",
      "temp_c": "34",
      "dewpoint_c": "24",
      "wind_dir_degrees": "VRB",
      "wind_speed_kt": "1",
      "visibility_statute_mi": "6+",
      "altim_in_hg": "29.59",
      "quality_control_flags": {
        "no_signal": "TRUE"
      },
      "sky_condition": [
        {
          "sky_cover": "CAVOK"
        }
      ],
      "flight_category": "VFR",
      "metar_type": "METAR",
      "elevation_m": "33"
    },
    {
      "raw_text": "METAR OMRK 140430Z VRB02KT CAVOK 34/25 Q1003 A2962",
      "station_id": "OMRK",
      "observation_time": "2026-06-14T04:30:00.000Z",
      "latitude": "25.6130",
      "longitude": "55.9390",
      "temp_c": "34",
      "dewpoint_c": "25",
      "wind_dir_degrees": "VRB",
      "wind_speed_kt": "2",
      "visibility_statute_mi": "6+",
      "altim_in_hg": "29.62",
      "quality_control_flags": null,
      "sky_condition": [
        {
          "sky_cover": "CAVOK"
        }
      ],
      "flight_category": "VFR",
      "metar_type": "METAR",
      "elevation_m": "18"
    },
    {
      "raw_text": "METAR VNKT 140430Z 25003KT 7000 FEW015 SCT030 27/18 Q1012 NOSIG",
      "station_id": "VNKT",
      "observation_time": "2026-06-14T04:30:00.000Z",
      "latitude": "27.6970",
      "longitude": "85.3590",
      "temp_c": "27",
      "dewpoint_c": "18",
      "wind_dir_degrees": "250",
      "wind_speed_kt": "3",
      "visibility_statute_mi": "4.35",
      "altim_in_hg": "29.88",
      "quality_control_flags": {
        "no_signal": "TRUE"
      },
      "sky_condition": [
        {
          "sky_cover": "FEW",
          "cloud_base_ft_agl": "1500"
        },
        {
          "sky_cover": "SCT",
          "cloud_base_ft_agl": "3000"
        }
      ],
      "flight_category": "MVFR",
      "metar_type": "METAR",
      "elevation_m": "1334"
    },
    {
      "raw_text": "METAR UBBY 140430Z 09020G38KT 8000 SCT030CB BKN060 20/13 Q1011 NOSIG RMK MT PT OBSC",
      "station_id": "UBBY",
      "observation_time": "2026-06-14T04:30:00.000Z",
      "latitude": "41.5610",
      "longitude": "46.6670",
      "temp_c": "20",
      "dewpoint_c": "13",
      "wind_dir_degrees": "90",
      "wind_speed_kt": "20",
      "wind_gust_kt": "38",
      "visibility_statute_mi": "4.97",
      "altim_in_hg": "29.85",
      "quality_control_flags": {
        "no_signal": "TRUE"
      },
      "sky_condition": [
        {
          "sky_cover": "SCT",
          "cloud_base_ft_agl": "3000"
        },
        {
          "sky_cover": "BKN",
          "cloud_base_ft_agl": "6000"
        }
      ],
      "flight_category": "MVFR",
      "metar_type": "METAR",
      "elevation_m": "383"
    },
    {
      "raw_text": "METAR ZMCK 140430Z 18005MPS 9999 SCT030CB SCT033 15/08 Q1013 NOSIG",
      "station_id": "ZMCK",
      "observation_time": "2026-06-14T04:30:00.000Z",
      "latitude": "47.6510",
      "longitude": "106.8220",
      "temp_c": "15",
      "dewpoint_c": "8",
      "wind_dir_degrees": "180",
      "wind_speed_kt": "10",
      "visibility_statute_mi": "6+",
      "altim_in_hg": "29.91",
      "quality_control_flags": {
        "no_signal": "TRUE"
      },
      "sky_condition": [
        {
          "sky_cover": "SCT",
          "cloud_base_ft_agl": "3000"
        },
        {
          "sky_cover": "SCT",
          "cloud_base_ft_agl": "3300"
        }
      ],
      "flight_category": "VFR",
      "metar_type": "METAR",
      "elevation_m": "1366"
    },
    {
      "raw_text": "METAR BKPR 140430Z VRB01KT CAVOK 12/10 Q1019 NOSIG",
      "station_id": "BKPR",
      "observation_time": "2026-06-14T04:30:00.000Z",
      "latitude": "42.5760",
      "longitude": "21.0300",
      "temp_c": "12",
      "dewpoint_c": "10",
      "wind_dir_degrees": "VRB",
      "wind_speed_kt": "1",
      "visibility_statute_mi": "6+",
      "altim_in_hg": "30.09",
      "quality_control_flags": {
        "no_signal": "TRUE"
      },
      "sky_condition": [
        {
          "sky_cover": "CAVOK"
        }
      ],
      "flight_category": "VFR",
      "metar_type": "METAR",
      "elevation_m": "545"
    }
  ]
}